0 UBAKUSAT
1 43466U 98067NP  19160.98024594  .00021306  00000-0  21002-3 0  9991
2 43466  51.6384  18.6358 0001554 112.9069 247.2091 15.65894666 61554
0 IRAZU
1 43468U 98067NR  19160.85744303 +.00029858 +00000-0 +26169-3 0  9995
2 43468 051.6373 016.2955 0001547 126.3397 233.7743 15.68599436161562
0 LONGJIANG 2
1 43472U 18045C   18140.97000001 -.00010094 +00000-0 +00000-0 0  9994
2 43472 027.5020 209.5210 9658153 171.2240 002.0960 00.09844104000019
0 BEIDOU IGSO-7
1 43539U 18057A   19160.86595563 -.00000083  00000-0  00000+0 0  9990
2 43539  55.0349 185.6831 0024011 201.1439 296.0116  1.00280478  3448
0 CUBERRT
1 43546U 98067NU  19160.88948371  .00034200  00000-0  35592-3 0  9993
2 43546  51.6389  24.0259 0005730 102.6279 257.5357 15.64226504 51612
0 TEMPEST-D
1 43547U 98067NV  19161.00397235  .00009233  00000-0  12770-3 0  9997
2 43547  51.6393  30.0392 0006331  91.6143 268.5574 15.57901819 51229
0 RAINCUBE
1 43548U 98067NW  19160.89416039 +.00013808 +00000-0 +16548-3 0  9998
2 43548 051.6379 027.0436 0006311 104.1991 255.9704 15.61233000051701
0 HALOSAT
1 43549U 98067NX  19160.83371706 +.00014933 +00000-0 +17894-3 0  9999
2 43549 051.6386 027.3996 0006259 105.3905 254.7780 15.61158501051256
0 RADIX
1 43550U 98067NY  19161.21304540  .00021024  00000-0  20871-3 0  9994
2 43550  51.6364  20.8934 0005139 124.2440 235.9043 15.65716964 51838
0 EQUISAT
1 43552U 98067PA  19160.83703792  .00012842  00000-0  15287-3 0  9998
2 43552  51.6397  26.6938 0006893 112.0252 248.1475 15.61480844 51632
0 AEROCUBE 12A
1 43556U 18046C   19160.82658025  .00001684  00000-0  72126-4 0  9996
2 43556  51.6429  99.1767 0008889  40.4978 319.6662 15.28686937 50201
0 AEROCUBE 12B
1 43557U 18046D   19161.03549121  .00001759  00000-0  75052-4 0  9991
2 43557  51.6428  98.3180 0008821  41.7512 318.4140 15.28559639 50188
0 LEMUR 2 VU
1 43558U 18046E   19160.81622451  .00002233  00000-0  89848-4 0  9991
2 43558  51.6424  98.3823 0008357  42.0630 318.0991 15.29307434 50206
0 LEMUR 2 ALEXANDER
1 43559U 18046F   19161.07041716  .00001749  00000-0  72892-4 0  9992
2 43559  51.6421  97.0821 0008468  43.1395 317.0247 15.29398673 50029
0 LEMUR 2 YUASA
1 43560U 18046G   19161.21160142  .00001732  00000-0  72549-4 0  9996
2 43560  51.6430  96.5154 0008795  55.8112 304.3701 15.29282858 50261
0 GALILEO 26 (2C2)
1 43565U 18060B   19160.15135916 -.00000076  00000-0  00000+0 0  9999
2 43565  56.5581  51.3205 0003752 304.2065  55.7965  1.70475495  5484
0 GALILEO 23 (2C9)
1 43566U 18060C   19160.95789966 -.00000080  00000-0  00000+0 0  9993
2 43566  56.5591  51.2998 0003246 301.1246  58.8798  1.70475337  5471
0 GALILEO 24 (2C0)
1 43567U 18060D   19159.41801237 -.00000072  00000-0  00000+0 0  9990
2 43567  56.5578  51.3429 0003495 301.8894  58.1173  1.70475214  5428
0 SIRIUSSAT-1
1 43595U 98067PG  19160.87264260 +.00013408 +00000-0 +16322-3 0  9991
2 43595 051.6375 028.3878 0004201 084.9644 275.1829 15.60859785046461
0 SIRIUSSAT-2
1 43596U 98067PH  19160.90212079 +.00014289 +00000-0 +17458-3 0  9996
2 43596 051.6385 028.6169 0004746 084.6535 275.5000 15.60698774046463
0 OBJECT PN
1 43638U 98067PN  19160.88116728  .00007518  00000-0  10555-3 0  9992
2 43638  51.6393  32.2199 0003416  72.5700 287.5665 15.57828035 38334
0 BEIDOU 3M18
1 43707U 18093B   19160.75839017 -.00000040  00000-0  00000+0 0  9993
2 43707  54.8616 269.7779 0007515 272.8195 128.0087  1.86231869  3779
0 OBJECT D
1 43935U 19003D   19161.15949772  .00000675  00000-0  32363-4 0  9998
2 43935  97.2820 219.1098 0020064 106.2345 338.5937 15.22040683 21762
0 DELPHINI
1 44030U 98067PW  19160.87371338  .00010912  00000-0  15826-3 0  9996
2 44030  51.6394  35.1688 0005480 112.1146 248.0428 15.56390753 20177
0 UNITE
1 44031U 98067PX  19160.90499552 +.00007066 +00000-0 +10815-3 0  9999
2 44031 051.6399 035.3791 0004106 108.7589 251.3848 15.55566800020176
0 TECHEDSAT 8
1 44032U 98067PY  19161.14326882  .00025922  00000-0  32844-3 0  9999
2 44032  51.6393  32.4716 0004650 111.4426 248.7063 15.59280918 20212
0 CATSAT-1
1 44033U 98067PZ  19160.87841659  .00011346  00000-0  16505-3 0  9994
2 44033  51.6402  35.2091 0005570 112.3066 247.8517 15.56262899 20111
0 OBJECT F
1 44045U 18092F   19161.12614260  .00001741  00000-0  61793-4 0  9990
2 44045  51.6434  52.3765 0012682  58.2455 301.9760 15.34889267 17926
0 ONEWEB-0012
1 44057U 19010A   19161.16593309 -.00000054  00000-0 -17917-3 0  9994
2 44057  87.9001  48.8115 0002231  78.6549 281.4832 13.15297937 13707
0 ONEWEB-0011
1 44062U 19010F   19160.77056214  .00000024  00000-0  24215-4 0  9990
2 44062  88.1439  48.7984 0012143 328.5356  31.4338 13.28079128 13854
0 M6P
1 44109U 19018AF  19161.15114192  .00001926  00000-0  65936-4 0  9990
2 44109  97.5098 222.3960 0062429  94.3334 318.7968 15.29674686 10491
0 HARBINGER
1 44229U 19026E   19161.00168311  .00000535  00000-0  32127-4 0  9999
2 44229  40.0221  26.2668 0006919 178.3666 181.7159 15.20472359  5436
0 BEIDOU-2 G8
1 44231U 19027A   19160.92887767 -.00000147 +00000-0 +00000-0 0  9997
2 44231 001.8227 294.0082 0002987 128.7331 249.7121 01.00272506000382
0 OBJECT A
1 44235U 19029A   19161.19213430 -.00714010  00000-0 -37218-1 0  9997
2 44235  52.9962  95.6886 0003118 225.8479 134.2258 15.17970200  3858
0 OBJECT AA
1 44259U 19029AA  19158.92335720 -.00786748  00000-0 -34349-1 0  9996
2 44259  53.0006 105.4471 0002306  37.7486 322.3671 15.24232790  2357
